      2.10          N: GNSS NAV DATA                        RINEX VERSION / TYPE
fic2rin                                 07/29/2021 00:17:11 PGM / RUN BY / DATE
                                                            END OF HEADER
11 21  7 28 16  0  0.0 2.492452040315e-05 6.480149750132e-12 0.000000000000e+00
    1.290000000000e+02 5.896875000000e+01 4.773770275265e-09-8.102038851125e-01
    3.127381205559e-06 5.197378341109e-04 5.755573511124e-06 5.153672691345e+03
    3.168000000000e+05 5.587935447693e-09 1.767429109065e+00-3.725290298462e-09
    9.597527894418e-01 2.672187500000e+02 1.754314247441e+00-8.311060474743e-09
    2.646538810393e-10 1.000000000000e+00 2.168000000000e+03 0.000000000000e+00
    7.680000000000e+02 6.300000000000e+01-5.587935447693e-09 3.850000000000e+02
    3.096000000000e+05 4.000000000000e+00
28 21  7 28 16  0  0.0 5.299104377627e-04-6.821210263297e-12 0.000000000000e+00
    5.100000000000e+01-1.434375000000e+01 4.495187242592e-09-1.346796611668e+00
   -4.079192876816e-07 1.745987066533e-02 6.362795829773e-06 5.153722328186e+03
    3.168000000000e+05-3.296881914139e-07-2.919941608088e-01 2.570450305939e-07
    9.721266274675e-01 2.677812500000e+02-1.343929603834e+00-8.234271561891e-09
   -1.678641350722e-10 1.000000000000e+00 2.168000000000e+03 0.000000000000e+00
    3.400000000000e+00 6.300000000000e+01-1.117587089539e-08 5.100000000000e+01
    3.096000000000e+05 4.000000000000e+00
14 21  7 28 16 14 40.0 3.672251477838e-05-8.867573342286e-12 0.000000000000e+00
    1.640000000000e+02-1.240625000000e+01 4.805200155874e-09 1.006521646992e+00
   -6.426125764847e-07 9.388112230226e-04 5.541369318962e-06 5.153750164032e+03
    3.176800000000e+05 3.725290298462e-09-3.423543886173e-01 1.117587089539e-08
    9.564067388425e-01 2.710937500000e+02 2.996732875690e+00-8.271058808513e-09
   -1.864363372504e-10 1.000000000000e+00 2.168000000000e+03 0.000000000000e+00
    2.400000000000e+00 0.000000000000e+00-7.916241884232e-09 4.200000000000e+02
    3.105000000000e+05 4.000000000000e+00
26 21  7 28 15 59 44.0 1.160125248134e-04 4.547473508865e-12 0.000000000000e+00
    6.000000000000e+00-6.187500000000e+00 5.239861118391e-09-4.941638085919e-02
   -2.235174179077e-07 5.950897117145e-03 5.155801773071e-06 5.153593702316e+03
    3.167840000000e+05 7.264316082001e-08-4.316820507759e-01 4.097819328308e-08
    9.411527354977e-01 2.685937500000e+02 2.993664179729e-01-8.620716230291e-09
   -1.221479450951e-10 1.000000000000e+00 2.168000000000e+03 0.000000000000e+00
    2.400000000000e+00 0.000000000000e+00 6.984919309616e-09 6.000000000000e+00
    3.111300000000e+05 4.000000000000e+00
24 21  7 28 15 59 44.0 1.903781667352e-04 1.296029950026e-11 0.000000000000e+00
    1.000000000000e+00 5.415625000000e+01 5.020566269594e-09 2.547877437939e+00
    2.698972821236e-06 1.127306302078e-02 8.583068847656e-06 5.153720340729e+03
    3.167840000000e+05 7.450580596924e-09-1.504834415605e+00-1.620501279831e-07
    9.344991090446e-01 1.985312500000e+02 7.459582035820e-01-8.223913987599e-09
    4.232319150224e-10 1.000000000000e+00 2.168000000000e+03 0.000000000000e+00
    2.400000000000e+00 0.000000000000e+00 2.793967723846e-09 1.000000000000e+00
    3.127500000000e+05 4.000000000000e+00
21 21  7 28 15 59 44.0 1.339782029390e-04 2.273736754432e-12 0.000000000000e+00
    0.000000000000e+00 6.793750000000e+01 4.664122850867e-09-1.740661459137e+00
    3.982335329056e-06 2.402960695326e-02 7.206574082375e-06 5.153663026810e+03
    3.167840000000e+05-3.818422555923e-07 1.633455835009e+00 5.010515451431e-07
    9.575327673689e-01 2.460000000000e+02-1.106690932131e+00-8.186769583243e-09
    2.996553389905e-10 1.000000000000e+00 2.168000000000e+03 0.000000000000e+00
    2.400000000000e+00 0.000000000000e+00-1.024454832077e-08 0.000000000000e+00
    3.158700000000e+05 4.000000000000e+00
21 21  7 28 17 59 44.0 1.339940354228e-04 2.273736754432e-12 0.000000000000e+00
    8.000000000000e+00 4.884375000000e+01 4.860559604675e-09-6.905834656419e-01
    2.382323145866e-06 2.402907609940e-02 7.579103112221e-06 5.153657770157e+03
    3.239840000000e+05-2.980232238770e-07 1.633392673521e+00-1.210719347000e-07
    9.575343897451e-01 2.400625000000e+02-1.106576251057e+00-8.656432003710e-09
    5.675236396376e-10 1.000000000000e+00 2.168000000000e+03 0.000000000000e+00
    2.400000000000e+00 0.000000000000e+00-1.024454832077e-08 8.000000000000e+00
    3.168000000000e+05 4.000000000000e+00
26 21  7 28 17 59 44.0 1.160451211035e-04 4.547473508865e-12 0.000000000000e+00
    7.000000000000e+00-6.000000000000e+00 5.171286833425e-09 1.000823942414e+00
   -2.589076757431e-07 5.950946826488e-03 5.142763257027e-06 5.153593759537e+03
    3.239840000000e+05-6.332993507385e-08-4.317432197695e-01 1.154839992523e-07
    9.411518957827e-01 2.693750000000e+02 2.993604170830e-01-8.523212168855e-09
   -2.146517982518e-10 1.000000000000e+00 2.168000000000e+03 0.000000000000e+00
    2.400000000000e+00 0.000000000000e+00 6.984919309616e-09 7.000000000000e+00
    3.168000000000e+05 4.000000000000e+00
24 21  7 28 17 59 44.0 1.904708333313e-04 1.284661266254e-11 0.000000000000e+00
    6.300000000000e+01 5.259375000000e+01 4.984493338441e-09-2.685191285429e+00
    2.713873982430e-06 1.127313147299e-02 8.277595043182e-06 5.153720260620e+03
    3.239840000000e+05 3.725290298462e-09-1.504892805054e+00-3.911554813385e-08
    9.345023333160e-01 2.050000000000e+02 7.459966417545e-01-8.125695610695e-09
    3.746584631717e-10 1.000000000000e+00 2.168000000000e+03 0.000000000000e+00
    2.400000000000e+00 0.000000000000e+00 2.793967723846e-09 6.300000000000e+01
    3.168000000000e+05 4.000000000000e+00
 2 21  7 28 18  0  0.0-6.226846016943e-04-2.501110429876e-12 0.000000000000e+00
    4.700000000000e+01 6.696875000000e+01 4.547332271785e-09-2.772242429082e+00
    3.501772880554e-06 2.019593131263e-02 6.373971700668e-06 5.153725048065e+03
    3.240000000000e+05 2.514570951462e-07 1.633716550418e+00 1.993030309677e-07
    9.633595656899e-01 2.539375000000e+02-1.503202132574e+00-7.843183842946e-09
    4.010881355022e-10 1.000000000000e+00 2.168000000000e+03 0.000000000000e+00
    2.400000000000e+00 0.000000000000e+00-1.769512891769e-08 4.700000000000e+01
    3.168000000000e+05 4.000000000000e+00
 1 21  7 28 18  0  0.0 6.144307553768e-04-1.148237060988e-11 0.000000000000e+00
    6.400000000000e+01 4.971875000000e+01 4.118385833015e-09-3.059288316301e+00
    2.412125468254e-06 1.107325730845e-02 6.854534149170e-06 5.153678689957e+03
    3.240000000000e+05 1.862645149231e-08 1.718846047306e+00-2.663582563400e-07
    9.847644154135e-01 2.596250000000e+02 8.792909740670e-01-7.793896075627e-09
    3.546576300567e-10 1.000000000000e+00 2.168000000000e+03 0.000000000000e+00
    2.400000000000e+00 0.000000000000e+00 5.122274160385e-09 6.400000000000e+01
    3.168000000000e+05 4.000000000000e+00
 5 21  7 28 18  0  0.0-4.933215677738e-05-1.250555214938e-12 0.000000000000e+00
    4.400000000000e+01-5.003125000000e+01 4.999493963277e-09-4.572061501170e-01
   -2.518296241760e-06 6.077993777581e-03 4.189088940620e-06 5.153558588028e+03
    3.240000000000e+05-4.470348358154e-08 2.718434556865e+00 3.911554813385e-08
    9.572915892315e-01 2.950000000000e+02 9.521922664242e-01-8.514997540969e-09
   -2.028655930234e-10 1.000000000000e+00 2.168000000000e+03 0.000000000000e+00
    2.400000000000e+00 0.000000000000e+00-1.117587089539e-08 4.400000000000e+01
    3.168000000000e+05 4.000000000000e+00
 3 21  7 28 18  0  0.0-2.350825816393e-04-1.239186531166e-11 0.000000000000e+00
    7.400000000000e+01-4.581250000000e+01 4.605548982459e-09 2.194103860433e+00
   -2.553686499596e-06 3.737290506251e-03 4.651024937630e-06 5.153551933289e+03
    3.240000000000e+05-7.078051567078e-08 2.756094582791e+00-2.607703208923e-08
    9.703453169716e-01 2.936875000000e+02 9.045558721200e-01-8.197841473003e-09
   -1.546492989069e-10 1.000000000000e+00 2.168000000000e+03 0.000000000000e+00
    2.400000000000e+00 0.000000000000e+00 1.862645149231e-09 7.400000000000e+01
    3.168000000000e+05 4.000000000000e+00
 4 21  7 28 18  0  0.0-2.031647600234e-04-5.684341886081e-13 0.000000000000e+00
    1.230000000000e+02-4.846875000000e+01 4.310536694013e-09-1.369602421964e+00
   -2.522021532059e-06 1.318329013884e-03 1.085922122002e-05 5.153720268250e+03
    3.240000000000e+05-4.097819328308e-08-2.446710787919e+00-8.568167686462e-08
    9.607704976620e-01 1.711875000000e+02-2.975579238259e+00-7.866399095669e-09
   -1.589351917173e-10 1.000000000000e+00 2.168000000000e+03 0.000000000000e+00
    2.400000000000e+00 0.000000000000e+00-4.190951585770e-09 8.910000000000e+02
    3.168000000000e+05 4.000000000000e+00
12 21  7 28 18  0  0.0-7.500965148211e-05-5.343281372916e-12 0.000000000000e+00
    3.100000000000e+01-1.750000000000e+01 4.349466887040e-09 1.879198417323e+00
   -1.003965735435e-06 8.276301901788e-03 5.913898348808e-06 5.153698900223e+03
    3.240000000000e+05-3.352761268616e-08-3.143116826975e-01-2.104789018631e-07
    9.729641817150e-01 2.706875000000e+02 1.229251104500e+00-8.046763751438e-09
   -1.957224383395e-10 1.000000000000e+00 2.168000000000e+03 0.000000000000e+00
    2.400000000000e+00 0.000000000000e+00-1.257285475731e-08 3.100000000000e+01
    3.168000000000e+05 4.000000000000e+00
 9 21  7 28 18  0  0.0-3.570984117687e-04-1.250555214938e-12 0.000000000000e+00
    2.300000000000e+01-5.046875000000e+01 4.576619205989e-09-3.946445579356e-01
   -2.617016434669e-06 1.969170058146e-03 1.010484993458e-05 5.153743808746e+03
    3.240000000000e+05-6.332993507385e-08-2.498035892125e+00 5.587935447693e-09
    9.536965894739e-01 1.804375000000e+02 1.821803733301e+00-8.046049435969e-09
   -1.485776174256e-10 1.000000000000e+00 2.168000000000e+03 0.000000000000e+00
    2.400000000000e+00 0.000000000000e+00 1.396983861923e-09 2.300000000000e+01
    3.168000000000e+05 4.000000000000e+00
